{
    "links": {
        "self": "http://www.neowsapp.com/rest/v1/neo/3843485?api_key=iIulBulltgU6a56xZRHN4H3l9WmuAYTsLGpBGhQ2"
    },
    "id": "3843485",
    "neo_reference_id": "3843485",
    "name": "(2019 PR)",
    "designation": "2019 PR",
    "nasa_jpl_url": "http://ssd.jpl.nasa.gov/sbdb.cgi?sstr=3843485",
    "absolute_magnitude_h": 19.6,
    "estimated_diameter": {
        "kilometers": {
            "estimated_diameter_min": 0.3195618867,
            "estimated_diameter_max": 0.7145621017
        },
        "meters": {
            "estimated_diameter_min": 319.5618867213,
            "estimated_diameter_max": 714.5621017269
        },
        "miles": {
            "estimated_diameter_min": 0.1985664891,
            "estimated_diameter_max": 0.4440081677
        },
        "feet": {
            "estimated_diameter_min": 1048.4314204307,
            "estimated_diameter_max": 2344.3639258298
        }
    },
    "is_potentially_hazardous_asteroid": false,
    "close_approach_data": [
        {
            "close_approach_date": "2019-08-19",
            "close_approach_date_full": "2019-Aug-19 16:59",
            "epoch_date_close_approach": 1566233940000,
            "relative_velocity": {
                "kilometers_per_second": "38.0590675638",
                "kilometers_per_hour": "137012.6432297308",
                "miles_per_hour": "85134.3282334958"
            },
            "miss_distance": {
                "astronomical": "0.2362033615",
                "lunar": "91.8831076235",
                "kilometers": "35335519.767240005",
                "miles": "21956473.848141869"
            },
            "orbiting_body": "Earth"
        }
    ],
    "orbital_data": {
        "orbit_id": "2",
        "orbit_determination_date": "2020-01-11 04:51:56",
        "first_observation_date": "2019-08-04",
        "last_observation_date": "2019-08-08",
        "data_arc_in_days": 4,
        "observations_used": 20,
        "orbit_uncertainty": "9",
        "minimum_orbit_intersection": ".131902",
        "jupiter_tisserand_invariant": "2.661",
        "epoch_osculation": "2458700.5",
        "eccentricity": ".8940076999155318",
        "semi_major_axis": "2.528459033587955",
        "inclination": "15.22506739172013",
        "ascending_node_longitude": "126.3629534172537",
        "orbital_period": "1468.528262606743",
        "perihelion_distance": ".2679971886393391",
        "perihelion_argument": "333.6876075549985",
        "aphelion_distance": "4.788920878536571",
        "perihelion_time": "2458752.977902818737",
        "mean_anomaly": "347.1353888816477",
        "mean_motion": ".2451433923110027",
        "equinox": "J2000",
        "orbit_class": {
            "orbit_class_type": "APO",
            "orbit_class_description": "Near-Earth asteroid orbits which cross the Earth’s orbit similar to that of 1862 Apollo",
            "orbit_class_range": "a (semi-major axis) > 1.0 AU; q (perihelion) < 1.017 AU"
        }
    },
    "is_sentry_object": false
}